[{"OBJECT_NAME":"BUGSAT-1 (TITA)","OBJECT_ID":"2014-033E","EPOCH":"2026-03-09T23:14:58.322976","MEAN_MOTION":15.14502987,"ECCENTRICITY":0.00292569,"INCLINATION":98.0428,"RA_OF_ASC_NODE":155.8085,"ARG_OF_PERICENTER":157.4521,"MEAN_ANOMALY":202.8002,"EPHEMERIS_TYPE":0,"CLASSIFICATION_TYPE":"U","NORAD_CAT_ID":40014,"ELEMENT_SET_NO":999,"REV_AT_EPOCH":64081,"BSTAR":0.00030961592,"MEAN_MOTION_DOT":5.686e-5,"MEAN_MOTION_DDOT":0},{"OBJECT_NAME":"STARLINK-6302","OBJECT_ID":"2023-061Y","EPOCH":"2026-03-09T22:00:01.999584","MEAN_MOTION":15.06824042,"ECCENTRICITY":0.00020207,"INCLINATION":42.9991,"RA_OF_ASC_NODE":183.5074,"ARG_OF_PERICENTER":276.9763,"MEAN_ANOMALY":155.4619,"EPHEMERIS_TYPE":0,"CLASSIFICATION_TYPE":"U","NORAD_CAT_ID":56396,"ELEMENT_SET_NO":999,"REV_AT_EPOCH":578,"BSTAR":0.0019317193,"MEAN_MOTION_DOT":0.00029184,"MEAN_MOTION_DDOT":0}]
